0 CZ-3A DEB
1 35550U 07003J   13280.38676129  .00000665  00000-0  33446-2 0  3874
2 35550 024.5187 015.4568 7527326 329.6873 003.1679 01.90059214 38824
0 CZ-3A DEB
1 35550U 07003J   13281.96510087  .00000731  00000-0  40743-2 0  3882
2 35550 024.5210 014.9883 7526693 330.5005 003.0699 01.90063508 38854
0 CZ-3A DEB
1 35550U 07003J   13287.22600092  .00000550  00000-0  40181-2 0  3899
2 35550 024.5322 013.4489 7525057 333.1699 002.7589 01.90074675 38957
0 CZ-3A DEB
1 35550U 07003J   13290.90861002  .00000632  00000-0  34652-2 0  3907
2 35550 024.5393 012.3711 7524249 335.0249 002.6336 01.90084992 39026
0 CZ-3A DEB
1 35550U 07003J   13292.48678899  .00000609  00000-0  37432-2 0  3916
2 35550 024.5383 011.9147 7524345 335.8236 002.5671 01.90088234 39051
